RASSVET-3 4
1 68363U 26061D   26104.75876093  .00088204  16154-5  27939-3 0  9996
2 68363  82.2965  83.7374 0022966 351.0474   9.0385 15.90642725  3505
RASSVET-3 5
1 68364U 26061E   26104.82104914  .00088713  16522-5  27887-3 0  9997
2 68364  82.2960  83.6641 0022613 350.7283   9.3568 15.90806265  3518
RASSVET-3 6
1 68365U 26061F   26104.81953240  .00089407  17005-5  27898-3 0  9991
2 68365  82.2960  83.6620 0022366 350.9005   9.1858 15.90960904  3516
RASSVET-3 7
1 68366U 26061G   26104.82058712  .00087529  15793-5  27479-3 0  9993
2 68366  82.2959  83.6636 0022333 350.7871   9.2987 15.90841352  3514
RASSVET-3 8
1 68367U 26061H   26104.82084161  .00085697  14662-5  26943-3 0  9994
2 68367  82.2961  83.6637 0022432 350.6253   9.4597 15.90807932  3517
RASSVET-3 9
1 68368U 26061J   26104.87832139  .00087551  15947-5  26826-3 0  9994
2 68368  82.2949  83.5820 0021822 351.8116   8.2797 15.91333452  3522
RASSVET-3 10
1 68369U 26061K   26104.82048946  .00085792  14702-5  27057-3 0  9995
2 68369  82.2963  83.6637 0022459 350.6577   9.4274 15.90745670  3511
RASSVET-3 11
1 68370U 26061L   26104.81994839  .00085681  14643-5  26994-3 0  9997
2 68370  82.2962  83.6626 0022232 350.5043   9.5805 15.90775176  3511
RASSVET-3 12
1 68371U 26061M   26104.75549791  .00093687  19840-5  29022-3 0  9998
2 68371  82.2959  83.7316 0021871 350.6222   9.4638 15.91125124  3508
RASSVET-3 13
1 68372U 26061N   26104.81782319  .00087189  15691-5  26901-3 0  9994
2 68372  82.2955  83.6588 0021399 350.4042   9.6819 15.91215514  3515
RASSVET-3 14
1 68373U 26061P   26104.81679709  .00094311  20324-5  28946-3 0  9998
2 68373  82.2959  83.6575 0021539 350.3273   9.7581 15.91317803  3518
RASSVET-3 15
1 68374U 26061Q   26104.81573446  .00090783  18054-5  27634-3 0  9999
2 68374  82.2953  83.6555 0021013 350.2700   9.8162 15.91495404  3512
RASSVET-3 16
1 68375U 26061R   26104.84187860  .00042165  00000+0  18754-3 0  9994
2 68375  82.2941  83.6913 0020147 359.6273   0.4977 15.83809778  3518
SUPERVIEW NEO-2 OBJECT A
1 68377U 26062A   26104.87471840  .00001656  00000+0  80244-4 0  9998
2 68377  97.4388 113.0845 0003856 173.0365 187.0925 15.19914147  3031
SUPERVIEW NEO-2 OBJECT B
1 68378U 26062B   26104.74291451  .00001446  00000+0  71090-4 0  9999
2 68378  97.4369 112.9508 0006253 187.9455 172.1682 15.19617352  3014
CZ-2D R/B
1 68379U 26062C   26104.86207807  .00005545  00000+0  17825-3 0  9994
2 68379  97.4975 113.3597 0051161 351.8203   8.2198 15.31409283  3053
