[{"OBJECT_NAME":"RASSVET-3 4","OBJECT_ID":"2026-061D","EPOCH":"2026-04-14T18:12:36.944352","MEAN_MOTION":15.90642725,"ECCENTRICITY":0.0022966,"INCLINATION":82.2965,"RA_OF_ASC_NODE":83.7374,"ARG_OF_PERICENTER":351.0474,"MEAN_ANOMALY":9.0385,"EPHEMERIS_TYPE":0,"CLASSIFICATION_TYPE":"U","NORAD_CAT_ID":68363,"ELEMENT_SET_NO":999,"REV_AT_EPOCH":350,"BSTAR":0.00027939,"MEAN_MOTION_DOT":0.00088204,"MEAN_MOTION_DDOT":1.6154e-6},{"OBJECT_NAME":"RASSVET-3 5","OBJECT_ID":"2026-061E","EPOCH":"2026-04-14T19:42:18.645696","MEAN_MOTION":15.90806265,"ECCENTRICITY":0.0022613,"INCLINATION":82.296,"RA_OF_ASC_NODE":83.6641,"ARG_OF_PERICENTER":350.7283,"MEAN_ANOMALY":9.3568,"EPHEMERIS_TYPE":0,"CLASSIFICATION_TYPE":"U","NORAD_CAT_ID":68364,"ELEMENT_SET_NO":999,"REV_AT_EPOCH":351,"BSTAR":0.00027887,"MEAN_MOTION_DOT":0.00088713,"MEAN_MOTION_DDOT":1.6522e-6},{"OBJECT_NAME":"RASSVET-3 6","OBJECT_ID":"2026-061F","EPOCH":"2026-04-14T19:40:07.599360","MEAN_MOTION":15.90960904,"ECCENTRICITY":0.0022366,"INCLINATION":82.296,"RA_OF_ASC_NODE":83.662,"ARG_OF_PERICENTER":350.9005,"MEAN_ANOMALY":9.1858,"EPHEMERIS_TYPE":0,"CLASSIFICATION_TYPE":"U","NORAD_CAT_ID":68365,"ELEMENT_SET_NO":999,"REV_AT_EPOCH":351,"BSTAR":0.00027898,"MEAN_MOTION_DOT":0.00089407,"MEAN_MOTION_DDOT":1.7005e-6},{"OBJECT_NAME":"RASSVET-3 7","OBJECT_ID":"2026-061G","EPOCH":"2026-04-14T19:41:38.727168","MEAN_MOTION":15.90841352,"ECCENTRICITY":0.0022333,"INCLINATION":82.2959,"RA_OF_ASC_NODE":83.6636,"ARG_OF_PERICENTER":350.7871,"MEAN_ANOMALY":9.2987,"EPHEMERIS_TYPE":0,"CLASSIFICATION_TYPE":"U","NORAD_CAT_ID":68366,"ELEMENT_SET_NO":999,"REV_AT_EPOCH":351,"BSTAR":0.00027479,"MEAN_MOTION_DOT":0.00087529,"MEAN_MOTION_DDOT":1.5793e-6},{"OBJECT_NAME":"RASSVET-3 8","OBJECT_ID":"2026-061H","EPOCH":"2026-04-14T19:42:00.715104","MEAN_MOTION":15.90807932,"ECCENTRICITY":0.0022432,"INCLINATION":82.2961,"RA_OF_ASC_NODE":83.6637,"ARG_OF_PERICENTER":350.6253,"MEAN_ANOMALY":9.4597,"EPHEMERIS_TYPE":0,"CLASSIFICATION_TYPE":"U","NORAD_CAT_ID":68367,"ELEMENT_SET_NO":999,"REV_AT_EPOCH":351,"BSTAR":0.00026943,"MEAN_MOTION_DOT":0.00085697,"MEAN_MOTION_DDOT":1.4662e-6},{"OBJECT_NAME":"RASSVET-3 9","OBJECT_ID":"2026-061J","EPOCH":"2026-04-14T21:04:46.968096","MEAN_MOTION":15.91333452,"ECCENTRICITY":0.0021822,"INCLINATION":82.2949,"RA_OF_ASC_NODE":83.582,"ARG_OF_PERICENTER":351.8116,"MEAN_ANOMALY":8.2797,"EPHEMERIS_TYPE":0,"CLASSIFICATION_TYPE":"U","NORAD_CAT_ID":68368,"ELEMENT_SET_NO":999,"REV_AT_EPOCH":352,"BSTAR":0.00026826,"MEAN_MOTION_DOT":0.00087551,"MEAN_MOTION_DDOT":1.5947e-6},{"OBJECT_NAME":"RASSVET-3 10","OBJECT_ID":"2026-061K","EPOCH":"2026-04-14T19:41:30.289344","MEAN_MOTION":15.9074567,"ECCENTRICITY":0.0022459,"INCLINATION":82.2963,"RA_OF_ASC_NODE":83.6637,"ARG_OF_PERICENTER":350.6577,"MEAN_ANOMALY":9.4274,"EPHEMERIS_TYPE":0,"CLASSIFICATION_TYPE":"U","NORAD_CAT_ID":68369,"ELEMENT_SET_NO":999,"REV_AT_EPOCH":351,"BSTAR":0.00027057,"MEAN_MOTION_DOT":0.00085792,"MEAN_MOTION_DDOT":1.4702e-6},{"OBJECT_NAME":"RASSVET-3 11","OBJECT_ID":"2026-061L","EPOCH":"2026-04-14T19:40:43.540896","MEAN_MOTION":15.90775176,"ECCENTRICITY":0.0022232,"INCLINATION":82.2962,"RA_OF_ASC_NODE":83.6626,"ARG_OF_PERICENTER":350.5043,"MEAN_ANOMALY":9.5805,"EPHEMERIS_TYPE":0,"CLASSIFICATION_TYPE":"U","NORAD_CAT_ID":68370,"ELEMENT_SET_NO":999,"REV_AT_EPOCH":351,"BSTAR":0.00026994,"MEAN_MOTION_DOT":0.00085681,"MEAN_MOTION_DDOT":1.4643e-6},{"OBJECT_NAME":"RASSVET-3 12","OBJECT_ID":"2026-061M","EPOCH":"2026-04-14T18:07:55.019424","MEAN_MOTION":15.91125124,"ECCENTRICITY":0.0021871,"INCLINATION":82.2959,"RA_OF_ASC_NODE":83.7316,"ARG_OF_PERICENTER":350.6222,"MEAN_ANOMALY":9.4638,"EPHEMERIS_TYPE":0,"CLASSIFICATION_TYPE":"U","NORAD_CAT_ID":68371,"ELEMENT_SET_NO":999,"REV_AT_EPOCH":350,"BSTAR":0.00029022,"MEAN_MOTION_DOT":0.00093687,"MEAN_MOTION_DDOT":1.984e-6},{"OBJECT_NAME":"RASSVET-3 13","OBJECT_ID":"2026-061N","EPOCH":"2026-04-14T19:37:39.923616","MEAN_MOTION":15.91215514,"ECCENTRICITY":0.0021399,"INCLINATION":82.2955,"RA_OF_ASC_NODE":83.6588,"ARG_OF_PERICENTER":350.4042,"MEAN_ANOMALY":9.6819,"EPHEMERIS_TYPE":0,"CLASSIFICATION_TYPE":"U","NORAD_CAT_ID":68372,"ELEMENT_SET_NO":999,"REV_AT_EPOCH":351,"BSTAR":0.00026901,"MEAN_MOTION_DOT":0.00087189,"MEAN_MOTION_DDOT":1.5691e-6},{"OBJECT_NAME":"RASSVET-3 14","OBJECT_ID":"2026-061P","EPOCH":"2026-04-14T19:36:11.268576","MEAN_MOTION":15.91317803,"ECCENTRICITY":0.0021539,"INCLINATION":82.2959,"RA_OF_ASC_NODE":83.6575,"ARG_OF_PERICENTER":350.3273,"MEAN_ANOMALY":9.7581,"EPHEMERIS_TYPE":0,"CLASSIFICATION_TYPE":"U","NORAD_CAT_ID":68373,"ELEMENT_SET_NO":999,"REV_AT_EPOCH":351,"BSTAR":0.00028946,"MEAN_MOTION_DOT":0.00094311,"MEAN_MOTION_DDOT":2.0324e-6},{"OBJECT_NAME":"RASSVET-3 15","OBJECT_ID":"2026-061Q","EPOCH":"2026-04-14T19:34:39.457344","MEAN_MOTION":15.91495404,"ECCENTRICITY":0.0021013,"INCLINATION":82.2953,"RA_OF_ASC_NODE":83.6555,"ARG_OF_PERICENTER":350.27,"MEAN_ANOMALY":9.8162,"EPHEMERIS_TYPE":0,"CLASSIFICATION_TYPE":"U","NORAD_CAT_ID":68374,"ELEMENT_SET_NO":999,"REV_AT_EPOCH":351,"BSTAR":0.00027634,"MEAN_MOTION_DOT":0.00090783,"MEAN_MOTION_DDOT":1.8054e-6},{"OBJECT_NAME":"RASSVET-3 16","OBJECT_ID":"2026-061R","EPOCH":"2026-04-14T20:12:18.311040","MEAN_MOTION":15.83809778,"ECCENTRICITY":0.0020147,"INCLINATION":82.2941,"RA_OF_ASC_NODE":83.6913,"ARG_OF_PERICENTER":359.6273,"MEAN_ANOMALY":0.4977,"EPHEMERIS_TYPE":0,"CLASSIFICATION_TYPE":"U","NORAD_CAT_ID":68375,"ELEMENT_SET_NO":999,"REV_AT_EPOCH":351,"BSTAR":0.00018754,"MEAN_MOTION_DOT":0.00042165,"MEAN_MOTION_DDOT":0},{"OBJECT_NAME":"SUPERVIEW NEO-2 OBJECT A","OBJECT_ID":"2026-062A","EPOCH":"2026-04-14T20:59:35.669760","MEAN_MOTION":15.19914147,"ECCENTRICITY":0.0003856,"INCLINATION":97.4388,"RA_OF_ASC_NODE":113.0845,"ARG_OF_PERICENTER":173.0365,"MEAN_ANOMALY":187.0925,"EPHEMERIS_TYPE":0,"CLASSIFICATION_TYPE":"U","NORAD_CAT_ID":68377,"ELEMENT_SET_NO":999,"REV_AT_EPOCH":303,"BSTAR":8.0244e-5,"MEAN_MOTION_DOT":1.656e-5,"MEAN_MOTION_DDOT":0},{"OBJECT_NAME":"SUPERVIEW NEO-2 OBJECT B","OBJECT_ID":"2026-062B","EPOCH":"2026-04-14T17:49:47.813664","MEAN_MOTION":15.19617352,"ECCENTRICITY":0.0006253,"INCLINATION":97.4369,"RA_OF_ASC_NODE":112.9508,"ARG_OF_PERICENTER":187.9455,"MEAN_ANOMALY":172.1682,"EPHEMERIS_TYPE":0,"CLASSIFICATION_TYPE":"U","NORAD_CAT_ID":68378,"ELEMENT_SET_NO":999,"REV_AT_EPOCH":301,"BSTAR":7.109e-5,"MEAN_MOTION_DOT":1.446e-5,"MEAN_MOTION_DDOT":0},{"OBJECT_NAME":"CZ-2D R/B","OBJECT_ID":"2026-062C","EPOCH":"2026-04-14T20:41:23.545248","MEAN_MOTION":15.31409283,"ECCENTRICITY":0.0051161,"INCLINATION":97.4975,"RA_OF_ASC_NODE":113.3597,"ARG_OF_PERICENTER":351.8203,"MEAN_ANOMALY":8.2198,"EPHEMERIS_TYPE":0,"CLASSIFICATION_TYPE":"U","NORAD_CAT_ID":68379,"ELEMENT_SET_NO":999,"REV_AT_EPOCH":305,"BSTAR":0.00017825,"MEAN_MOTION_DOT":5.545e-5,"MEAN_MOTION_DDOT":0}]
